ONEWEB-0300             
1 49089U 21075Q   25288.61138204  .00000410  00000+0  11053-2 0  9991
2 49089  87.8960  39.2350 0001445 102.7979 257.3311 13.12442888203122
ONEWEB-0301             
1 49090U 21075R   25288.74762486  .00000085  00000+0  20190-3 0  9993
2 49090  87.8956  39.2116 0001286 105.2711 254.8560 13.12445468202500
ONEWEB-0302             
1 49091U 21075S   25288.58217270 -.00000160  00000+0 -47926-3 0  9994
2 49091  87.8967  39.2525 0002192 101.8078 258.3297 13.12445141202461
ONEWEB-0304             
1 49092U 21075T   25288.65388240 -.00000127  00000+0 -36127-3 0  9993
2 49092  87.9110  54.4891 0001783  94.2204 265.9131 13.17649074201375
ONEWEB-0305             
1 49093U 21075U   25288.79900934 -.00000053  00000+0 -16847-3 0  9994
2 49093  87.9106  54.4368 0001827  85.6384 274.4957 13.17649723201420
ONEWEB-0308             
1 49094U 21075V   25288.57568122 -.00000362  00000+0 -10418-2 0  9990
2 49094  87.8962  39.2450 0001700 101.5255 258.6065 13.12444706202477
ONEWEB-0309             
1 49095U 21075W   25288.80237009 -.00000008  00000+0 -53178-4 0  9993
2 49095  87.9103  54.4527 0002141 100.3286 259.8087 13.17647208201395
ONEWEB-0310             
1 49096U 21075X   25288.59028550  .00000130  00000+0  32563-3 0  9997
2 49096  87.8950  39.2842 0001826 100.7130 259.4204 13.12445285203101
